{
  "norad_id": 57914,
  "name": "STARLINK-30483",
  "history": [
    {
      "epoch": "2026-03-28T16:21:01.735776Z",
      "apogee_km": 483.93789397549244,
      "perigee_km": 482.17868350345907,
      "latitude_deg": 7.0765914545770275e-06,
      "longitude_deg": 1.018148862640949,
      "height_km": 482.7967972259957,
      "semi_major_axis_km": 6861.1952887394755,
      "eccentricity": 0.0001282,
      "inclination_deg": 43.0047,
      "raan_deg": 72.3736,
      "arg_perigee_deg": 272.5166,
      "mean_anomaly_deg": 87.5539,
      "mean_motion_rev_day": 15.2757693
    }
  ]
}